[{"OBJECT_NAME":"STARLINK-5679","OBJECT_ID":"2023-015U","EPOCH":"2026-03-09T10:05:42.940032","MEAN_MOTION":15.02531061,"ECCENTRICITY":8.123e-5,"INCLINATION":43.0019,"RA_OF_ASC_NODE":327.445,"ARG_OF_PERICENTER":280.2917,"MEAN_ANOMALY":79.7834,"EPHEMERIS_TYPE":0,"CLASSIFICATION_TYPE":"U","NORAD_CAT_ID":55467,"ELEMENT_SET_NO":999,"REV_AT_EPOCH":17071,"BSTAR":1.4215509e-5,"MEAN_MOTION_DOT":-1.1e-7,"MEAN_MOTION_DDOT":0},{"OBJECT_NAME":"OBJECT H","OBJECT_ID":"2025-292H","EPOCH":"2026-03-09T22:24:53.558208","MEAN_MOTION":15.06373042,"ECCENTRICITY":0.00142604,"INCLINATION":97.6442,"RA_OF_ASC_NODE":145.7846,"ARG_OF_PERICENTER":348.9217,"MEAN_ANOMALY":11.1694,"EPHEMERIS_TYPE":0,"CLASSIFICATION_TYPE":"U","NORAD_CAT_ID":67000,"ELEMENT_SET_NO":999,"REV_AT_EPOCH":1338,"BSTAR":0.0005462937,"MEAN_MOTION_DOT":8.001e-5,"MEAN_MOTION_DDOT":0}]
